GORIZONT 5 [-]          
1 13092U 82020A   17346.39056569 -.00000122  00000-0  00000+0 0  9996
2 13092  14.4924 332.0609 0030963 173.9968   9.4958  0.98531319 90944
